Code,AirportName,City,Country,latitude,longitude,geoloc,city_sky,bigger_city
ANR,DEURNE,ANTWERP,BELGIUM,51.19,4.463,"[51.19, 4.463]",ANTW-sky,TRUE
BRU,BRUSSELS NATL,BRUSSELS,BELGIUM,50.902,4.499,"[50.902, 4.499]",BRUS-sky,FALSE
CRL,BRUSSELS SOUTH,CHARLEROI,BELGIUM,50.459,4.454,"[50.458999999999996, 4.454]",BRUS-sky,FALSE
LGG,LIEGE,LIEGE,BELGIUM,50.637,5.443,"[50.637, 5.443]",LIEG-sky,FALSE
OST,OOSTENDE,OSTEND,BELGIUM,51.199,2.862,"[51.199, 2.862]",OSTA-sky,FALSE
SXF,SCHONEFELD,BERLIN,GERMANY,52.38,13.523,"[52.38, 13.523]",BERL-sky,TRUE
DRS,DRESDEN,DRESDEN,GERMANY,51.133,13.767,"[51.133, 13.767000000000001]",DRES-sky,TRUE
ERF,ERFURT,ERFURT,GERMANY,50.98,10.958,"[50.98, 10.958]",ERFU-sky,FALSE
FRA,FRANKFURT MAIN,FRANKFURT,GERMANY,50.026,8.543,"[50.026, 8.543]",FRAN-sky,TRUE
FMO,MUNSTER OSNABRUCK,MUENSTER/OSNABRUECK,GERMANY,52.134,7.685,"[52.13399999999999, 7.685]",MUNS-sky,FALSE
HAM,HAMBURG,HAMBURG,GERMANY,53.63,9.988,"[53.63, 9.988]",HAMB-sky,TRUE
CGN,KOLN BONN,COLOGNE,GERMANY,50.866,7.143,"[50.86600000000001, 7.143]",COLO-sky,TRUE
DUS,DUSSELDORF,DUESSELDORF,GERMANY,51.289,6.767,"[51.288999999999994, 6.767]",DUSS-sky,FALSE
MUC,MUNICH,MUNICH,GERMANY,48.354,11.786,"[48.354, 11.786]",MUNI-sky,TRUE
NUE,NURNBERG,NUERNBERG,GERMANY,49.499,11.078,"[49.498999999999995, 11.078]",NURE-sky,FALSE
LEJ,LEIPZIG HALLE,LEIPZIG,GERMANY,51.424,12.236,"[51.424, 12.235999999999999]",LEIP-sky,TRUE
SCN,SAARBRUCKEN,SAARBRUECKEN,GERMANY,49.214,7.109,"[49.214, 7.109]",SAAR-sky,FALSE
STR,STUTTGART,STUTTGART,GERMANY,48.69,9.222,"[48.69, 9.222000000000001]",STUT-sky,TRUE
TXL,TEGEL,BERLIN,GERMANY,52.559,13.287,"[52.559, 13.287]",BERL-sky,TRUE
HAJ,HANNOVER,HANNOVER,GERMANY,52.461,9.685,"[52.461000000000006, 9.685]",HANN-sky,FALSE
BRE,BREMEN,BREMEN,GERMANY,53.047,8.787,"[53.047, 8.787]",BREM-sky,TRUE
HHN,FRANKFURT HAHN,HAHN,GERMANY,49.95,7.264,"[49.95, 7.263999999999999]",FRAN-sky,FALSE
MHG,MANNHEIM CITY,MANNHEIM,GERMANY,49.473,8.514,"[49.473, 8.514]",MANN-sky,TRUE
KEL,KIEL HOLTENAU,KIEL,GERMANY,54.379,10.145,"[54.379, 10.145]",KIEL-sky,FALSE
ESS,ESSEN MULHEIM,ESSEN,GERMANY,51.401,6.936,"[51.401, 6.936]",ESSE-sky,TRUE
PAD,PADERBORN LIPPSTADT,PADERBORN,GERMANY,51.614,8.616,"[51.614, 8.616]",PADE-sky,FALSE
DTM,DORTMUND,DORTMUND,GERMANY,51.518,7.612,"[51.518, 7.612]",DORT-sky,TRUE
AGB,AUGSBURG,AUGSBURG,GERMANY,48.425,10.932,"[48.425, 10.932]",AUGS-sky,FALSE
FDH,FRIEDRICHSHAFEN,FRIEDRICHSHAFEN,GERMANY,47.671,9.511,"[47.67100000000001, 9.511000000000001]",FRIE-sky,FALSE
BWE,BRAUNSCHWEIG,BRAUNSCHWEIG,GERMANY,52.319,10.556,"[52.318999999999996, 10.556]",BRAU-sky,FALSE
KSF,KASSEL CALDEN,KASSEL,GERMANY,51.408,9.378,"[51.408, 9.378]",KASS-sky,FALSE
BMK,BORKUM,BORKUM,GERMANY,53.595,6.709,"[53.595, 6.709]",BORK-sky,FALSE
GWT,WESTERLAND SYLT,WESTERLAND,GERMANY,54.913,8.34,"[54.913000000000004, 8.34]",WEST-sky,FALSE
ENF,ENONTEKIO,ENONTEKIO,FINLAND,68.362,23.424,"[68.362, 23.424]",ENON-sky,FALSE
HEL,HELSINKI VANTAA,HELSINKI,FINLAND,60.32,24.956,"[60.32, 24.956]",HELS-sky,TRUE
IVL,IVALO,IVALO,FINLAND,68.607,27.405,"[68.607, 27.405]",IVAL-sky,FALSE
JOE,JOENSUU,JOENSUU,FINLAND,62.659,29.624,"[62.659, 29.624000000000002]",JOEN-sky,FALSE
JYV,JYVASKYLA,JYVASKYLA,FINLAND,62.399,25.678,"[62.398999999999994, 25.678]",JYVA-sky,FALSE
KEM,KEMI TORNIO,KEMI,FINLAND,65.782,24.599,"[65.782, 24.599]",KEMI-sky,FALSE
KAJ,KAJAANI,KAJAANI,FINLAND,64.285,27.692,"[64.285, 27.691999999999997]",KAJA-sky,FALSE
KOK,KRUUNUPYY,KRUUNUPYY,FINLAND,63.721,23.143,"[63.721000000000004, 23.143]",KOKK-sky,FALSE
KAO,KUUSAMO,KUUSAMO,FINLAND,65.987,29.239,"[65.987, 29.239]",KUUS-sky,FALSE
KTT,KITTILA,KITTILA,FINLAND,67.701,24.847,"[67.70100000000001, 24.846999999999998]",KITT-sky,FALSE
KUO,KUOPIO,KUOPIO,FINLAND,63.007,27.798,"[63.007, 27.798000000000002]",KUOP-sky,FALSE
LPP,LAPPEENRANTA,LAPPEENRANTA,FINLAND,61.044,28.144,"[61.044, 28.144000000000002]",LAPP-sky,FALSE
MHQ,MARIEHAMN,MARIEHAMN,FINLAND,60.122,19.898,"[60.122, 19.898]",MARJ-sky,FALSE
OUL,OULU,OULU,FINLAND,64.93,25.354,"[64.93, 25.354]",OULU-sky,FALSE
POR,PORI,PORI,FINLAND,61.462,21.8,"[61.461999999999996, 21.8]",PORI-sky,FALSE
RVN,ROVANIEMI,ROVANIEMI,FINLAND,66.565,25.83,"[66.565, 25.83]",ROVA-sky,FALSE
SVL,SAVONLINNA,SAVONLINNA,FINLAND,61.943,28.945,"[61.943000000000005, 28.945]",SAVO-sky,FALSE
TMP,TAMPERE PIRKKALA,TAMPERE,FINLAND,61.414,23.604,"[61.413999999999994, 23.604]",TAMP-sky,FALSE
TKU,TURKU,TURKU,FINLAND,60.514,22.263,"[60.513999999999996, 22.263]",TURK-sky,FALSE
VAA,VAASA,VAASA,FINLAND,63.051,21.761,"[63.051, 21.761]",VAAS-sky,FALSE
BHX,BIRMINGHAM,BIRMINGHAM,ENGLAND,52.454,-1.748,"[52.45399999999999, -1.7480000000000002]",BIRM-sky,TRUE
MAN,MANCHESTER,MANCHESTER,ENGLAND,53.354,-2.275,"[53.354, -2.275]",MANC-sky,TRUE
NQY,ST MAWGAN,NEWQUAI,ENGLAND,50.441,-4.995,"[50.441, -4.995]",NEWQ-sky,FALSE
SWS,SWANSEA,SWANSEA,ENGLAND,51.605,-4.068,"[51.605, -4.0680000000000005]",SWAN-sky,FALSE
BRS,BRISTOL,BRISTOL,ENGLAND,51.383,-2.719,"[51.383, -2.719]",BRIS-sky,TRUE
LPL,LIVERPOOL,LIVERPOOL,ENGLAND,53.334,-2.85,"[53.333999999999996, -2.85]",LIVE-sky,TRUE
LTN,LUTON,LONDON,ENGLAND,51.874,-0.368,"[51.873999999999995, -0.368]",LOND-sky,TRUE
PLH,PLYMOUTH,PLYMOUTH,ENGLAND,50.423,-4.106,"[50.423, -4.106]",PLYM-sky,FALSE
BOH,BOURNEMOUTH,BOURNEMOUTH,ENGLAND,50.78,-1.843,"[50.78, -1.8430000000000002]",BOUR-sky,FALSE
SOU,SOUTHAMPTON,SOUTHAMPTON,ENGLAND,50.95,-1.357,"[50.95, -1.357]",SOUT-sky,FALSE
JER,JERSEY,JERSEY,ENGLAND,49.208,-2.195,"[49.208, -2.195]",JERS-sky,FALSE
LGW,GATWICK,LONDON,ENGLAND,51.148,-0.19,"[51.148, -0.19]",LOND-sky,TRUE
LCY,CITY,LONDON,ENGLAND,51.505,0.054,"[51.505, 0.054000000000000006]",LOND-sky,TRUE
SEN,SOUTHEND,SOUTHEND,ENGLAND,51.571,0.696,"[51.571000000000005, 0.696]",LOND-sky,FALSE
CAX,CARLISLE,CARLISLE,ENGLAND,54.938,-2.809,"[54.938, -2.8089999999999997]",CAXA-sky,FALSE
HUY,HUMBERSIDE,HUMBERSIDE,ENGLAND,53.574,-0.351,"[53.574, -0.35100000000000003]",HUMB-sky,FALSE
LBA,LEEDS BRADFORD,LEEDS,ENGLAND,53.866,-1.661,"[53.86600000000001, -1.661]",LEED-sky,TRUE
IOM,ISLE OF MAN,ISLE OF MAN,ENGLAND,54.083,-4.624,"[54.083, -4.624]",CAST-sky,FALSE
NCL,NEWCASTLE,NEWCASTLE,ENGLAND,55.038,-1.692,"[55.038000000000004, -1.692]",NEWC-sky,FALSE
MME,TEESSIDE,TEESSIDE,ENGLAND,54.509,-1.429,"[54.50899999999999, -1.429]",MMEA-sky,FALSE
EMA,EAST MIDLANDS,EAST MIDLANDS,ENGLAND,52.831,-1.328,"[52.831, -1.328]",NOTT-sky,FALSE
KOI,KIRKWALL,KIRKWALL,SCOTLAND,58.958,-2.905,"[58.958, -2.905]",ORKN-sky,FALSE
NWI,NORWICH,NORWICH,ENGLAND,52.676,1.283,"[52.676, 1.2830000000000001]",NORW-sky,FALSE
STN,STANSTED,LONDON,ENGLAND,51.885,0.235,"[51.885, 0.235]",LOND-sky,TRUE
EXT,EXETER,EXETER,ENGLAND,50.734,-3.414,"[50.733999999999995, -3.4139999999999997]",EXET-sky,FALSE
AMS,SCHIPHOL,AMSTERDAM,NETHERLANDS,52.309,4.764,"[52.309, 4.763999999999999]",AMST-sky,TRUE
MST,MAASTRICHT,MAASTRICHT,NETHERLANDS,50.911,5.77,"[50.911, 5.77]",MAAS-sky,FALSE
EIN,EINDHOVEN,EINDHOVEN,NETHERLANDS,51.45,5.374,"[51.45, 5.374]",EIND-sky,FALSE
GRQ,EELDE,GRONINGEN,NETHERLANDS,53.119,6.579,"[53.119, 6.579]",GRON-sky,FALSE
RTM,ROTTERDAM,ROTTERDAM,NETHERLANDS,51.957,4.442,"[51.957, 4.442]",ROTT-sky,TRUE
ORK,CORK,CORK,IRELAND,51.843,-8.492,"[51.843, -8.492]",CORK-sky,FALSE
DUB,DUBLIN,DUBLIN,IRELAND,53.421,-6.27,"[53.42100000000001, -6.27]",DUBL-sky,TRUE
NOC,CONNAUGHT,CONNAUGHT,IRELAND,53.91,-8.818,"[53.91, -8.818]",KNOC-sky,FALSE
KIR,KERRY,KERRY,IRELAND,52.181,-9.524,"[52.181000000000004, -9.524]",KERR-sky,FALSE
SNN,SHANNON,SHANNON,IRELAND,52.702,-8.925,"[52.702, -8.925]",SHAN-sky,FALSE
AAR,AARHUS,AARHUS,DENMARK,56.304,10.619,"[56.303999999999995, 10.619000000000002]",AARH-sky,FALSE
BLL,BILLUND,BILLUND,DENMARK,55.74,9.152,"[55.74, 9.152000000000001]",BILL-sky,FALSE
CPH,KASTRUP,COPENHAGEN,DENMARK,55.618,12.656,"[55.618, 12.655999999999999]",COPE-sky,TRUE
EBJ,ESBJERG,ESBJERG,DENMARK,55.526,8.553,"[55.526, 8.552999999999999]",ESBJ-sky,FALSE
KRP,KARUP,KARUP,DENMARK,56.297,9.124,"[56.297, 9.124]",KARU-sky,FALSE
ODE,ODENSE,ODENSE,DENMARK,55.476,10.329,"[55.476000000000006, 10.329]",ODEN-sky,FALSE
RKE,ROSKILDE,COPENHAGEN,DENMARK,55.586,12.131,"[55.586000000000006, 12.130999999999998]",COPE-sky,TRUE
RNN,BORNHOLM RONNE,RONNE,DENMARK,55.063,14.759,"[55.063, 14.759]",RONO-sky,FALSE
SGD,SONDERBORG,SOENDERBORG,DENMARK,54.964,9.792,"[54.964, 9.792]",SOND-sky,FALSE
AAL,AALBORG,AALBORG,DENMARK,57.093,9.849,"[57.093, 9.849]",AALB-sky,FALSE
AES,VIGRA,ALESUND,NORWAY,62.56,6.11,"[62.56, 6.11]",AALE-sky,FALSE
ANX,ANDOYA,ANDOYA,NORWAY,69.293,16.144,"[69.293, 16.144000000000002]",ANDE-sky,FALSE
ALF,ALTA,ALTA,NORWAY,69.977,23.366,"[69.977, 23.366]",ALTA-sky,FALSE
BNN,BRONNOY,BRONNOYSUND,NORWAY,65.459,12.214,"[65.459, 12.214]",BRON-sky,FALSE
BOO,BODO,BODOE,NORWAY,67.269,14.363,"[67.26899999999999, 14.363]",BODO-sky,FALSE
BGO,BERGEN FLESLAND,BERGEN,NORWAY,60.293,5.218,"[60.293, 5.218]",BERI-sky,FALSE
BJF,BATSFJORD,BATSFJORD,NORWAY,70.6,29.692,"[70.6, 29.691999999999997]",BATS-sky,FALSE
KRS,KRISTIANSAND KJEVIK,KRISTIANSAND,NORWAY,58.204,8.085,"[58.20399999999999, 8.085]",KRSA-sky,FALSE
BDU,BARDUFOSS,BARDUFOSS,NORWAY,69.056,18.54,"[69.056, 18.54]",BARD-sky,FALSE
EVE,EVENES,EVENES,NORWAY,68.491,16.678,"[68.491, 16.678]",EVEN-sky,FALSE
FRO,FLORO,FLORO,NORWAY,61.584,5.025,"[61.583999999999996, 5.025]",FLOT-sky,FALSE
OSL,OSLO GARDERMOEN,OSLO,NORWAY,60.194,11.1,"[60.193999999999996, 11.1]",OSLO-sky,FALSE
HAU,HAUGESUND KARMOY,HAUGESUND,NORWAY,59.345,5.208,"[59.345, 5.207999999999999]",HAUG-sky,FALSE
HAA,HASVIK,HASVIK,NORWAY,70.487,22.14,"[70.487, 22.14]",HASV-sky,FALSE
KSU,KRISTIANSUND KVERNBERGET,KRISTIANSUND,NORWAY,63.112,7.824,"[63.111999999999995, 7.824]",KRIT-sky,FALSE
KKN,KIRKENES HOYBUKTMOEN,KIRKENES,NORWAY,69.725,29.887,"[69.725, 29.886999999999997]",KIRK-sky,FALSE
MOL,ARO,MOLDE,NORWAY,62.746,7.272,"[62.746, 7.272]",MOLD-sky,FALSE
MJF,KJAERSTAD,MOSJOEN,NORWAY,65.784,13.215,"[65.78399999999999, 13.215]",MOSJ-sky,FALSE
LKL,BANAK,BANAK,NORWAY,70.069,24.973,"[70.069, 24.973000000000003]",LAKE-sky,FALSE
OLA,ORLAND,ORLAND,NORWAY,63.699,9.604,"[63.699, 9.604]",ORLA-sky,FALSE
RRS,ROEROS,ROROS,NORWAY,62.578,11.342,"[62.578, 11.342]",RORO-sky,FALSE
LYR,SVALBARD LONGYEAR,SVALBARD,NORWAY,78.246,15.466,"[78.24600000000001, 15.466]",LYRL-sky,FALSE
SOG,SOGNDAL HAUKASEN,SOGNDAL,NORWAY,61.156,7.136,"[61.156000000000006, 7.136]",SOGN-sky,FALSE
SRP,SOERSTOKKEN,STORD,NORWAY,59.792,5.341,"[59.792, 5.341]",STOS-sky,FALSE
SOJ,SORKJOSEN,SORKJOSEN,NORWAY,69.787,20.959,"[69.78699999999999, 20.959]",SORK-sky,FALSE
SSJ,STOKKA,SANDNESSJOEN,NORWAY,65.957,12.469,"[65.957, 12.469000000000001]",SANE-sky,FALSE
TOS,TROMSO,TROMSO,NORWAY,69.683,18.919,"[69.683, 18.919]",TROM-sky,FALSE
TRF,TORP,TORP,NORWAY,59.187,10.259,"[59.187, 10.259]",OSLO-sky,FALSE
TRD,TRONDHEIM VAERNES,TRONDHEIM,NORWAY,63.458,10.94,"[63.458, 10.94]",TRON-sky,FALSE
SVG,STAVANGER SOLA,STAVANGER,NORWAY,58.877,5.638,"[58.876999999999995, 5.638]",STAV-sky,FALSE
GDN,REBIECHOWO,GDANSK,POLAND,54.377,18.466,"[54.376999999999995, 18.465999999999998]",GADA-sky,FALSE
KRK,BALICE JP II INTERNATIONAL AIRPORT,KRAKOW,POLAND,50.078,19.785,"[50.078, 19.785]",KRAK-sky,FALSE
KTW,PYRZOWICE,KATOWICE,POLAND,50.474,19.08,"[50.474, 19.08]",KATO-sky,FALSE
POZ,LAWICA,POZNAN,POLAND,52.421,16.826,"[52.42100000000001, 16.826]",POZN-sky,FALSE
RZE,JASIONKA,RZESZOW,POLAND,50.11,22.019,"[50.11, 22.019000000000002]",RZES-sky,FALSE
SZZ,GOLENIOW,SZCZECHIN,POLAND,53.585,14.902,"[53.585, 14.902000000000001]",SZCZ-sky,FALSE
WAW,OKECIE,WARSAW,POLAND,52.166,20.967,"[52.166000000000004, 20.967]",WARS-sky,TRUE
WRO,STRACHOWICE,WROCLAW,POLAND,51.102,16.886,"[51.102, 16.886]",WROC-sky,FALSE
IEG,BABIMOST,ZIELONA GORA,POLAND,52.139,15.799,"[52.138999999999996, 15.799000000000001]",ZIEL-sky,FALSE
AGH,ANGELHOLM,ANGELHOLM,SWEDEN,56.296,12.847,"[56.29600000000001, 12.847000000000001]",HELT-sky,FALSE
RNB,RONNEBY,RONNEBY,SWEDEN,56.267,15.265,"[56.266999999999996, 15.265]",RONN-sky,FALSE
GOT,LANDVETTER,GOTHENBORG,SWEDEN,57.663,12.28,"[57.663000000000004, 12.28]",GOTH-sky,FALSE
JKG,JONKOPING,JOENKOEPING,SWEDEN,57.758,14.069,"[57.758, 14.069]",JONK-sky,FALSE
THN,TROLLHATTAN VANERSBORG,TROLLHATTAN,SWEDEN,58.318,12.345,"[58.318000000000005, 12.345]",TROL-sky,FALSE
MXX,MORA,MORA,SWEDEN,60.958,14.511,"[60.958, 14.511]",MORA-sky,FALSE
NYO,SKAVSTA,STOCKHOLM,SWEDEN,58.789,16.912,"[58.788999999999994, 16.912]",STOC-sky,TRUE
KID,KRISTIANSTAD,KRISTIANSTAD,SWEDEN,55.922,14.085,"[55.922, 14.085]",KRIS-sky,FALSE
KLR,KALMAR,KALKMAR,SWEDEN,56.685,16.288,"[56.685, 16.288]",KALM-sky,FALSE
MMX,STURUP,MALMOE,SWEDEN,55.53,13.371,"[55.53, 13.370999999999999]",MALM-sky,FALSE
HAD,HALMSTAD,HALMSTAD,SWEDEN,56.691,12.82,"[56.691, 12.82]",HALM-sky,FALSE
VXO,KRONOBERG,VAXJO,SWEDEN,56.929,14.728,"[56.928999999999995, 14.728]",VAXJ-sky,FALSE
EVG,SVEG,SVEG,SWEDEN,62.048,14.423,"[62.048, 14.423]",SVEG-sky,FALSE
GEV,GALLIVARE,GALLIVARE,SWEDEN,67.132,20.814,"[67.132, 20.814]",GALL-sky,FALSE
KRF,KRAMFORS SOLLEFTEA,KRAMFORS,SWEDEN,63.048,17.769,"[63.048, 17.769000000000002]",KRAM-sky,FALSE
LYC,LYCKSELE,LYCKSELE,SWEDEN,64.548,18.716,"[64.548, 18.715999999999998]",LYCK-sky,FALSE
SDL,SUNDSVALL HARNOSAND,SUNDSVALL,SWEDEN,62.528,17.444,"[62.528, 17.444000000000003]",SUND-sky,FALSE
OER,ORNSKOLDSVIK,ORNSKOLDSVIK,SWEDEN,63.408,18.99,"[63.408, 18.99]",ORNS-sky,FALSE
KRN,KIRUNA,KIRUNA,SWEDEN,67.822,20.337,"[67.822, 20.337]",KIRU-sky,FALSE
SFT,SKELLEFTEA,SKELLEFTEA,SWEDEN,64.625,21.077,"[64.625, 21.076999999999998]",SKEL-sky,FALSE
UME,UMEA,UMEA,SWEDEN,63.792,20.282,"[63.792, 20.282]",UMEA-sky,FALSE
VHM,VILHELMINA,VILHELMINA,SWEDEN,64.579,16.833,"[64.579, 16.833]",VILH-sky,FALSE
AJR,ARVIDSJAUR,ARVIDSJAUR,SWEDEN,65.59,19.282,"[65.59, 19.282]",ARVI-sky,FALSE
ORB,OREBRO,OREBRO,SWEDEN,59.224,15.038,"[59.224, 15.038]",OREB-sky,FALSE
VST,VASTERAS,VASTERAS,SWEDEN,59.589,16.634,"[59.589, 16.634]",STOC-sky,FALSE
LLA,KALLAX,LULEA,SWEDEN,65.544,22.122,"[65.544, 22.122]",LULE-sky,FALSE
OSD,FROSON,OSTERSUND,SWEDEN,63.194,14.502,"[63.193999999999996, 14.502]",OSTE-sky,FALSE
ARN,ARLANDA,STOCKHOLM,SWEDEN,59.652,17.919,"[59.652, 17.919]",STOC-sky,TRUE
BMA,BROMMA,STOCKHOLM,SWEDEN,59.354,17.941,"[59.354, 17.941]",STOC-sky,TRUE
BLE,BORLANGE,BORLANGE,SWEDEN,60.422,15.515,"[60.422, 15.515]",BORL-sky,FALSE
LPI,SAAB,LINKOEPING,SWEDEN,58.406,15.68,"[58.406000000000006, 15.68]",LINK-sky,FALSE
NRK,KUNGSANGEN,NORRKOEPING,SWEDEN,58.586,16.251,"[58.586000000000006, 16.250999999999998]",NORR-sky,FALSE
VBY,VISBY,VISBY,SWEDEN,57.663,18.346,"[57.663000000000004, 18.346]",VISB-sky,FALSE
RLG,LAAGE,LAAGE,GERMANY,53.918,12.279,"[53.918, 12.279000000000002]",ROST-sky,FALSE
BGN,BRUGGEN,BRUEGGEN,GERMANY,51.2,6.132,"[51.2, 6.132000000000001]",BGNC-sky,FALSE
SPC,LA PALMA,SANTA CRUZ DE LA PALMA,SPAIN,28.626,-17.756,"[28.625999999999998, -17.756]",LAPA-sky,FALSE
ALC,ALICANTE,ALICANTE,SPAIN,38.282,-0.558,"[38.282, -0.5579999999999999]",ALIC-sky,TRUE
LEI,ALMERIA,ALMERIA,SPAIN,36.844,-2.37,"[36.844, -2.37]",ALME-sky,FALSE
OVD,ASTURIAS,AVILES,SPAIN,43.563,-6.034,"[43.563, -6.034]",AVIL-sky,FALSE
BIO,BILBAO,BILBAO,SPAIN,43.301,-2.911,"[43.301, -2.911]",BILB-sky,TRUE
BCN,BARCELONA,BARCELONA,SPAIN,41.297,2.078,"[41.297, 2.0780000000000003]",BARC-sky,TRUE
BJZ,TALAVERA LA REAL,BADAJOZ,SPAIN,38.891,-6.821,"[38.891, -6.821000000000001]",BADA-sky,FALSE
LCG,A CORUNA,LA CORUNA,SPAIN,43.302,-8.377,"[43.302, -8.377]",LACO-sky,FALSE
GRX,ARMILLA,GRANADA,SPAIN,37.133,-3.636,"[37.133, -3.636]",GRAO-sky,FALSE
GRO,GIRONA,GERONA,SPAIN,41.901,2.76,"[41.901, 2.76]",GERO-sky,FALSE
GRX,GRANADA,GRANADA,SPAIN,37.189,-3.777,"[37.189, -3.7769999999999997]",GRAO-sky,FALSE
IBZ,IBIZA,IBIZA,SPAIN,38.873,1.373,"[38.873000000000005, 1.3730000000000002]",IBIZ-sky,FALSE
XRY,JEREZ,JEREZ,SPAIN,36.744,-6.06,"[36.744, -6.06]",JERE-sky,FALSE
MAD,BARAJAS,MADRID,SPAIN,40.472,-3.561,"[40.472, -3.5610000000000004]",MADR-sky,TRUE
AGP,MALAGA,MALAGA,SPAIN,36.674,-4.499,"[36.674, -4.499]",MALA-sky,FALSE
MAH,MENORCA,MENORCA,SPAIN,39.863,4.219,"[39.863, 4.218999999999999]",MENO-sky,FALSE
PMI,PALMA DE MALLORCA,PALMA DE MALLORCA,SPAIN,39.55,2.733,"[39.55, 2.733]",PALM-sky,TRUE
PNA,PAMPLONA,PAMPLONA,SPAIN,42.77,-1.646,"[42.77, -1.646]",PAMP-sky,FALSE
REU,REUS,REUS,SPAIN,41.147,1.167,"[41.147, 1.167]",REUS-sky,FALSE
EAS,SAN SEBASTIAN,SAN SEBASTIAN,SPAIN,43.356,-1.791,"[43.356, -1.791]",SANS-sky,FALSE
SCQ,SANTIAGO,SANTIAGO,SPAIN,42.896,-8.415,"[42.896, -8.415]",SANC-sky,FALSE
VLC,VALENCIA,VALENCIA,SPAIN,39.489,-0.481,"[39.489000000000004, -0.48100000000000004]",VALE-sky,TRUE
VLL,VALLADOLID,VALLADOLID,SPAIN,41.706,-4.852,"[41.706, -4.852]",VALL-sky,FALSE
VIT,VITORIA,VITORIA,SPAIN,42.883,-2.724,"[42.883, -2.7239999999999998]",VITO-sky,FALSE
VGO,VIGO,VIGO,SPAIN,42.232,-8.627,"[42.232, -8.627]",VIGO-sky,FALSE
SDR,SANTANDER,SANTANDER,SPAIN,43.427,-3.82,"[43.427, -3.82]",SANT-sky,FALSE
ZAZ,ZARAGOZA AB,ZARAGOZA,SPAIN,41.666,-1.041,"[41.666000000000004, -1.041]",ZARA-sky,TRUE
SVQ,SEVILLA,SEVILLA,SPAIN,37.418,-5.893,"[37.418, -5.893]",SEVI-sky,TRUE
LTQ,LE TOUQUET PARIS PLAGE,LE TOURQUET,FRANCE,50.515,1.627,"[50.515, 1.6269999999999998]",LETO-sky,FALSE
AGF,LA GARENNE,AGEN,FRANCE,44.175,0.591,"[44.175, 0.591]",AGEN-sky,FALSE
BOD,MERIGNAC,BORDEAUX,FRANCE,44.828,-0.716,"[44.828, -0.716]",BORD-sky,FALSE
EGC,ROUMANIERE,BERGERAC,FRANCE,44.825,0.519,"[44.825, 0.519]",BERG-sky,FALSE
PIS,BIARD,POITIERS,FRANCE,46.588,0.307,"[46.588, 0.307]",POIT-sky,FALSE
LIG,BELLEGARDE,LIMOGES,FRANCE,45.863,1.179,"[45.863, 1.179]",LIMO-sky,FALSE
TLS,BLAGNAC,TOULOUSE,FRANCE,43.629,1.364,"[43.629, 1.364]",TOUS-sky,TRUE
PUF,PAU PYRENEES,PAU,FRANCE,43.38,-0.419,"[43.38, -0.419]",PAUU-sky,FALSE
LRH,LHERM,LA ROCHELLE,FRANCE,43.449,1.263,"[43.449, 1.263]",LARO-sky,FALSE
LDE,LOURDES,TARBES,FRANCE,43.179,-0.006,"[43.178999999999995, -0.006]",LOUR-sky,FALSE
BVE,LA ROCHE,BRIVE,FRANCE,45.151,1.469,"[45.151, 1.469]",BRIV-sky,FALSE
PGX,BASSILLAC,PERIGUEUX,FRANCE,45.198,0.816,"[45.198, 0.816]",PERI-sky,FALSE
BIQ,ANGLET,BIARRITZ-BAYONNE,FRANCE,43.468,-1.523,"[43.468, -1.5230000000000001]",BIAR-sky,FALSE
DCM,MAZAMET,CASTRES,FRANCE,43.556,2.289,"[43.556000000000004, 2.289]",CASU-sky,FALSE
RDZ,MARCILLAC,RODEZ,FRANCE,44.408,2.482,"[44.408, 2.4819999999999998]",RODE-sky,FALSE
DLE,TAVAUX,DOLE,FRANCE,47.039,5.427,"[47.038999999999994, 5.4270000000000005]",DOLE-sky,FALSE
LPY,LOUDES,LE PUY,FRANCE,45.079,3.765,"[45.07899999999999, 3.765]",LEPU-sky,FALSE
ETZ,METZ NANCY LORRAINE,METZ,FRANCE,48.982,6.254,"[48.982, 6.254]",METZ-sky,FALSE
CMF,AIX LES BAINS,CHAMBERY,FRANCE,45.638,5.88,"[45.638000000000005, 5.88]",CHAM-sky,FALSE
CFE,AUVERGNE,CLERMONT FERRAND,FRANCE,45.786,3.169,"[45.786, 3.1689999999999996]",CLER-sky,FALSE
LYS,SAINT EXUPERY,LYON,FRANCE,45.726,5.091,"[45.726000000000006, 5.091]",LYON-sky,TRUE
NCY,MEYTHET,ANNECY,FRANCE,45.929,6.099,"[45.928999999999995, 6.099]",ANNE-sky,FALSE
GNB,SAINT GEOIRS,GRENOBLE,FRANCE,45.363,5.329,"[45.363, 5.329]",GREN-sky,FALSE
AUR,AURILLAC,AURILLAC,FRANCE,44.891,2.422,"[44.891000000000005, 2.4219999999999997]",AURI-sky,FALSE
CHR,DEOLS,CHATEAUROUX,FRANCE,46.862,1.731,"[46.861999999999995, 1.7309999999999999]",CHAT-sky,FALSE
LYN,BRON,LYON,FRANCE,45.728,4.945,"[45.728, 4.945]",LYON-sky,TRUE
QXB,AIX LES MILLES,AIX-LES-MILLES,FRANCE,43.505,5.368,"[43.505, 5.367999999999999]",AIXE-sky,FALSE
EBU,BOUTHEON,ST.-ETIENNE,FRANCE,45.54,4.296,"[45.54, 4.296]",STET-sky,FALSE
CCF,SALVAZA,CARCASSONNE,FRANCE,43.216,2.306,"[43.216, 2.306]",CARC-sky,FALSE
MRS,PROVENCE,MARSEILLE,FRANCE,43.436,5.214,"[43.43600000000001, 5.2139999999999995]",MARS-sky,TRUE
NCE,COTE D AZUR,NICE,FRANCE,43.661,7.218,"[43.661, 7.218]",NICE-sky,TRUE
PGF,RIVESALTES,PERPIGNAN,FRANCE,42.74,2.871,"[42.74, 2.8710000000000004]",PERP-sky,FALSE
MPL,MEDITERRANEE,MONTPELLIER,FRANCE,43.576,3.963,"[43.576, 3.963]",MONT-sky,FALSE
BZR,VIAS,BEZIERS,FRANCE,43.324,3.356,"[43.324, 3.3560000000000003]",BEXI-sky,FALSE
AVN,CAUMONT,AVIGNON,FRANCE,43.907,4.902,"[43.907, 4.902]",AVIG-sky,FALSE
MEN,BRENOUX,MENDE,FRANCE,44.502,3.533,"[44.501999999999995, 3.533]",MEND-sky,FALSE
BVA,TILLE,BEAUVAIS,FRANCE,49.454,2.113,"[49.45399999999999, 2.113]",PARI-sky,FALSE
TUF,VAL DE LOIRE,TOURS,FRANCE,47.432,0.728,"[47.431999999999995, 0.728]",TOUR-sky,FALSE
CDG,CHARLES DE GAULLE,PARIS,FRANCE,49.013,2.55,"[49.013000000000005, 2.55]",PARI-sky,TRUE
TNF,TOUSSUS LE NOBLE,TOUSSOUS-LE-NOBLE,FRANCE,48.752,2.106,"[48.751999999999995, 2.106]",TOUT-sky,FALSE
ORY,ORLY,PARIS,FRANCE,48.725,2.359,"[48.725, 2.359]",PARI-sky,TRUE
LIL,LESQUIN,LILLE,FRANCE,50.562,3.089,"[50.562, 3.089]",LILL-sky,FALSE
BES,GUIPAVAS,BREST,FRANCE,48.448,-4.418,"[48.448, -4.418]",BRES-sky,FALSE
DNR,PLEURTUIT,DINARD,FRANCE,48.588,-2.08,"[48.588, -2.08]",DINA-sky,FALSE
DOL,ST GATIEN,DEAUVILLE,FRANCE,49.365,0.154,"[49.365, 0.154]",DEAU-sky,FALSE
LRT,LANN BIHOUE,LORIENT,FRANCE,47.761,-3.44,"[47.761, -3.44]",LORI-sky,FALSE
CFR,CARPIQUET,CAEN,FRANCE,49.173,-0.45,"[49.173, -0.45]",CAEN-sky,FALSE
LME,ARNAGE,LE MANS,FRANCE,47.949,0.202,"[47.949, 0.20199999999999999]",LEMA-sky,FALSE
RNS,ST JACQUES,RENNES,FRANCE,48.069,-1.735,"[48.068999999999996, -1.735]",RENN-sky,FALSE
LAI,LANNION,LANNION,FRANCE,48.754,-3.471,"[48.754, -3.471]",LANN-sky,FALSE
UIP,PLUGUFFAN,QUIMPER,FRANCE,47.975,-4.168,"[47.975, -4.168]",QUIM-sky,FALSE
NTE,NANTES ATLANTIQUE,NANTES,FRANCE,47.153,-1.611,"[47.153, -1.611]",NANT-sky,TRUE
SNR,MONTOIR,ST.-NAZAIRE,FRANCE,47.312,-2.149,"[47.312, -2.149]",STNA-sky,FALSE
MLH,BALE MULHOUSE,MULHOUSE,FRANCE,47.589,7.53,"[47.589, 7.53]",MULH-sky,FALSE
RHE,CHAMPAGNE,REIMS,FRANCE,49.31,4.05,"[49.31, 4.05]",REIM-sky,FALSE
SXB,ENTZHEIM,STRASSBOURG,FRANCE,48.538,7.628,"[48.538000000000004, 7.627999999999999]",STRA-sky,FALSE
TLN,HYERES,HYERES,FRANCE,43.097,6.146,"[43.097, 6.146]",TOUL-sky,FALSE
FNI,GARONS,NIMES,FRANCE,43.757,4.416,"[43.757, 4.416]",NIME-sky,FALSE
BUD,FERIHEGY,BUDAPEST,HUNGARY,47.437,19.256,"[47.437, 19.256]",BUDA-sky,TRUE
DEB,DEBRECEN,DEBRECEN,HUNGARY,47.489,21.615,"[47.489, 21.615]",DEBR-sky,FALSE
CRV,CROTONE,CROTONE,ITALY,38.997,17.08,"[38.997, 17.08]",CORT-sky,FALSE
BRI,PALESE MACCHIE,BARI,ITALY,41.138,16.761,"[41.138000000000005, 16.761]",BARI-sky,TRUE
FOG,GINO LISA,FOGGIA,ITALY,41.433,15.535,"[41.433, 15.535]",FOGG-sky,FALSE
PSR,PESCARA,PESCARA,ITALY,42.431,14.181,"[42.431000000000004, 14.181]",PESC-sky,FALSE
BDS,CASALE,BRINDISI,ITALY,40.657,17.947,"[40.657, 17.947]",BRIN-sky,FALSE
SUF,LAMEZIA TERME,LAMEZIA,ITALY,38.906,16.242,"[38.906, 16.242]",MARA-sky,FALSE
CTA,CATANIA FONTANAROSSA,CATANIA,ITALY,37.467,15.066,"[37.467, 15.065999999999999]",CATA-sky,TRUE
LMP,LAMPEDUSA,LAMPEDUSA,ITALY,35.498,12.618,"[35.498000000000005, 12.618]",LAMP-sky,FALSE
PNL,PANTELLERIA,PANTELLERIA,ITALY,36.816,11.969,"[36.816, 11.969000000000001]",PANT-sky,FALSE
PMO,PALERMO,PALERMO,ITALY,38.176,13.091,"[38.176, 13.091]",PALE-sky,TRUE
PMO,BOCCADIFALCO,PALERMO,ITALY,38.111,13.313,"[38.111, 13.312999999999999]",PALE-sky,TRUE
REG,REGGIO CALABRIA,REGGIO CALABRIA,ITALY,38.071,15.651,"[38.071, 15.651]",REGG-sky,FALSE
TPS,TRAPANI BIRGI,TRAPANI,ITALY,37.913,12.488,"[37.913000000000004, 12.488]",TRAP-sky,FALSE
AHO,ALGHERO,ALGHERO,ITALY,40.632,8.291,"[40.632, 8.291]",ALGS-sky,FALSE
CAG,ELMAS,CAGLIARI,ITALY,39.251,9.054,"[39.251, 9.054]",CAGL-sky,FALSE
OLB,OLBIA COSTA SMERALDA,OLBIA,ITALY,40.899,9.518,"[40.899, 9.517999999999999]",OLBI-sky,FALSE
MXP,MALPENSA,MILANO,ITALY,45.631,8.728,"[45.631, 8.728]",MILA-sky,FALSE
BGY,BERGAMO ORIO AL SERIO,BERGAMO,ITALY,45.674,9.704,"[45.674, 9.704]",MILA-sky,FALSE
TRN,TORINO,TORINO,ITALY,45.201,7.649,"[45.201, 7.649]",TURI-sky,TRUE
GOA,GENOVA SESTRI,GENOA,ITALY,44.412,8.842,"[44.412, 8.842]",GENO-sky,TRUE
LIN,LINATE,MILAN,ITALY,45.445,9.277,"[45.445, 9.277000000000001]",MILA-sky,TRUE
PMF,PARMA,PARMA,ITALY,44.824,10.296,"[44.824, 10.296]",PARM-sky,FALSE
CUF,LEVALDIGI,LEVALDIGI,ITALY,44.546,7.622,"[44.54600000000001, 7.622000000000001]",CUNE-sky,FALSE
BLQ,BOLOGNA,BOLOGNA,ITALY,44.534,11.29,"[44.534, 11.29]",BOLO-sky,TRUE
TSF,TREVISO,TREVISO,ITALY,45.649,12.195,"[45.648999999999994, 12.195]",VENI-sky,FALSE
TRS,RONCHI DEI LEGIONARI,RONCHI DE LEGIONARI,ITALY,45.828,13.466,"[45.828, 13.466]",TRIE-sky,FALSE
RMI,RIMINI,RIMINI,ITALY,44.02,12.612,"[44.02, 12.612]",RIMI-sky,FALSE
VRN,VILLAFRANCA,VILLAFRANCA,ITALY,45.396,10.888,"[45.396, 10.888]",VERO-sky,FALSE
VCE,VENEZIA TESSERA,VENICE,ITALY,45.505,12.352,"[45.505, 12.352]",VENI-sky,FALSE
SAY,AMPUGNANO,SIENA,ITALY,43.257,11.254,"[43.257, 11.254000000000001]",SIEN-sky,FALSE
CIA,CIAMPINO,ROME,ITALY,41.799,12.595,"[41.799, 12.595]",ROME-sky,TRUE
FCO,FIUMICINO,ROME,ITALY,41.813,12.253,"[41.813, 12.253]",ROME-sky,TRUE
NAP,CAPODICHINO,NAPLES,ITALY,40.886,14.291,"[40.885999999999996, 14.290999999999999]",NAPL-sky,TRUE
PSA,PISA,PISA,ITALY,43.684,10.393,"[43.684, 10.392999999999999]",PISA-sky,FALSE
FLR,PERETOLA,FIRENZE,ITALY,43.81,11.205,"[43.81, 11.205]",FLOR-sky,FALSE
PEG,PERUGIA,PERUGIA,ITALY,43.096,12.513,"[43.096000000000004, 12.513]",PERU-sky,FALSE
LJU,LJUBLJANA,LJUBLIANA,SLOVENIA,46.224,14.457,"[46.224, 14.457]",LJUB-sky,FALSE
MBX,MARIBOR,MARIBOR,SLOVENIA,46.48,15.686,"[46.48, 15.686]",MARI-sky,FALSE
GRZ,GRAZ MIL/CIV,GRAZ,AUSTRIA,47,15.433,"[47.0, 15.433]",GRAZ-sky,FALSE
INN,INNSBRUCK,INNSBRUCK,AUSTRIA,47.26,11.344,"[47.26, 11.344000000000001]",INNS-sky,FALSE
KLU,KLAGENFURT(AUS-AFB),KLAGENFURT,AUSTRIA,46.65,14.333,"[46.65, 14.333]",KLAG-sky,FALSE
LNZ,HORSCHING INTERNATIONAL AIRPORT (AUS - AFB),LINZ,AUSTRIA,48.233,14.183,"[48.233000000000004, 14.183]",LINZ-sky,FALSE
SZG,SALZBURG,SALZBURG,AUSTRIA,47.793,13.004,"[47.793, 13.004000000000001]",SALZ-sky,FALSE
VIE,SCHWECHAT,VIENNA,AUSTRIA,48.11,16.57,"[48.11, 16.57]",VIEN-sky,TRUE
LIS,LISBOA,LISBON,PORTUGAL,38.781,-9.136,"[38.781, -9.136000000000001]",LISB-sky,TRUE
GVA,GENEVA COINTRIN,GENEVA,SWITZERLAND,46.238,6.109,"[46.238, 6.109]",GENE-sky,FALSE
SIR,SION,SION,SWITZERLAND,46.219,7.327,"[46.218999999999994, 7.327000000000001]",SION-sky,FALSE
LUG,LUGANO,LUGANO,SWITZERLAND,46.004,8.911,"[46.004, 8.911]",LUGA-sky,FALSE
BRN,BERN BELP,BERN,SWITZERLAND,46.914,7.497,"[46.913999999999994, 7.497000000000001]",BERN-sky,FALSE
ZRH,ZURICH,ZURICH,SWITZERLAND,47.465,8.549,"[47.465, 8.549]",ZURI-sky,FALSE
ACH,ST GALLEN ALTENRHEIN,ALTENRHEIN,SWITZERLAND,47.485,9.561,"[47.485, 9.561]",ALTF-sky,FALSE